{"type": "FeatureCollection", "metadata": {"generated_by": "visa-finder", "sample": true, "states": ["MO", "TX"], "count": 3}, "features": [{"type": "Feature", "geometry": {"type": "Point", "coordinates": [-92.3341, 38.9517]}, "properties": {"name": "Synthetic Software LLC", "entity_type": "LLC", "naics_code": "541511", "address": null, "city": "Columbia", "state": "MO", "lca_filing_count": 2, "approval_count": null, "building_score": null, "in_target_band": true, "size_confidence": "low", "review_status": "auto", "job_titles": ["Software Developer", "Senior Software Developer"], "geocode_precision": "city", "sample": true}}, {"type": "Feature", "geometry": {"type": "Point", "coordinates": [-97.7431, 30.2672]}, "properties": {"name": "Fictional Apps LLC", "entity_type": "LLC", "naics_code": "513210", "address": null, "city": "Austin", "state": "TX", "lca_filing_count": 2, "approval_count": null, "building_score": null, "in_target_band": true, "size_confidence": "low", "review_status": "needs_review", "job_titles": ["Web Developer", "Front End Developer"], "geocode_precision": "city", "sample": true}}, {"type": "Feature", "geometry": {"type": "Point", "coordinates": [-96.797, 32.7767]}, "properties": {"name": "Megacorp Systems Inc", "entity_type": "CORP", "naics_code": "541512", "address": null, "city": "Dallas", "state": "TX", "lca_filing_count": 1, "approval_count": null, "building_score": null, "in_target_band": true, "size_confidence": "low", "review_status": "auto", "job_titles": ["Software Developer"], "geocode_precision": "city", "sample": true}}]}